{"type": "FeatureCollection", "features": [{"type": "Feature", "properties": {"UFID": "100037705095G01010100000000000024", "BJCD": "1171000000", "NAME": "송파구", "DIVI": "HJD007", "SCLS": "G0018115", "FMTA": "R23120024"}, "geometry": {"type": "Polygon", "coordinates": [[[127.11552448503745, 37.54225385109836], [127.11554723120989, 37.54224720645623], [127.1155489329141, 37.54224912467168], [127.11572383911074, 37.54219542701102], [127.11575056576294, 37.542187807397895], [127.115791471821, 37.542174405753386], [127.11587038179522, 37.54215019248873], [127.11598331146828, 37.54211552773169], [127.11603475241904, 37.54210197278003], [127.11614370646366, 37.54207260211987], [127.11618714444297, 37.54205658562514], [127.11623672776845, 37.542041700456856], [127.11648118907638, 37.54197196094195], [127.11649785944218, 37.54196692603262], [127.11652934337167, 37.541956262493656], [127.11698638344647, 37.54168956383537], [127.11733458926882, 37.54148757957898], [127.11733785516371, 37.54149109102548], [127.11736980195285, 37.5415253522987], [127.11750491206206, 37.54148536784407], [127.11753820836594, 37.541475504900156], [127.11759324976988, 37.54145589120238], [127.11778783611608, 37.54139848653537], [127.11793557826418, 37.5413550037516], [127.11807903057037, 37.54131031711912], [127.11812730252937, 37.54129803272952], [127.11835191462437, 37.54122995663568], [127.11857249364724, 37.54116644416742], [127.11887686693589, 37.54107180936208], [127.11892652797825, 37.54112882801974], [127.11894628019321, 37.541120928286844], [127.11895308128764, 37.541118208310635], [127.11887030472387, 37.54102048484679], [127.1188668230611, 37.54101554319651], [127.11885213653451, 37.54099473037231], [127.11891167632724, 37.54097164864098], [127.11910896694874, 37.54089510302499], [127.11929158162488, 37.54081627169841], [127.11937895245757, 37.540778521563766], [127.11957772520658, 37.540692792422746], [127.11973437721518, 37.54062582873485], [127.11977649883318, 37.54060145110958], [127.12025990787883, 37.5403294705255], [127.12036166836434, 37.54026019866348], [127.1206881377934, 37.54004050403964], [127.12085388151391, 37.53992882837928], [127.12095589953324, 37.539859448662234], [127.12117337743501, 37.539715421295945], [127.12120122833986, 37.53969740240709], [127.12134140859061, 37.53961088921277], [127.12139680597208, 37.539576371860214], [127.12159729708142, 37.53945146107185], [127.12185305644105, 37.53928869694059], [127.12185894479926, 37.53928510496602], [127.12188252952988, 37.53927350432652], [127.12240637311504, 37.53901677267396], [127.12240527310283, 37.539014483318795], [127.12243371270004, 37.539004193339935], [127.1224429056766, 37.539000939093896], [127.12299594743067, 37.538805253233136], [127.12344238383349, 37.53864625437339], [127.12299822325056, 37.53742424646191], [127.12296817303255, 37.53734158271964], [127.12267483981495, 37.53653462089345], [127.12254081433528, 37.536158287458846], [127.12247491417736, 37.53597359986247], [127.1222102185461, 37.53523176652316], [127.12199769049865, 37.5346398589468], [127.12187009890467, 37.534284504477974], [127.12147621187208, 37.53320437129671], [127.12117213927408, 37.53236824979464], [127.12091304566214, 37.53156756531976], [127.1207350263874, 37.53102039119053], [127.1206669640922, 37.53080758398511], [127.12060522981908, 37.530628571805195], [127.12048631728767, 37.53034142755506], [127.120414406366, 37.53018325077463], [127.1203556300583, 37.53006932231962], [127.1201352173336, 37.52966290919917], [127.11987218237235, 37.52923339909731], [127.11909262180603, 37.52796017211579], [127.11926853053842, 37.52788251234948], [127.11929068888644, 37.52787257871602], [127.1207058637272, 37.5272475809833], [127.12233546880674, 37.52652792449885], [127.12296684118354, 37.52624904994381], [127.12500004014535, 37.525351053192374], [127.12522775635841, 37.52525047511666], [127.1254026361521, 37.52517325536583], [127.12579463675355, 37.525000108746184], [127.12748861378721, 37.52425185471821], [127.12755168866512, 37.52422403583234], [127.12846957986359, 37.52381850711677], [127.12870492329273, 37.52371454185329], [127.1290133685588, 37.52357827214328], [127.12940385665493, 37.523405755884326], [127.12974940711577, 37.52325310039998], [127.13107590120778, 37.52266708884816], [127.13153629769198, 37.52246367796241], [127.13201014266522, 37.52225430592773], [127.13229160623233, 37.522129938803324], [127.13363477557871, 37.52153646714801], [127.13386819492972, 37.52143332562182], [127.13427081643866, 37.5212558264289], [127.13496313882672, 37.520950601308016], [127.13817282434, 37.51953056752015], [127.13813886359235, 37.51951610122301], [127.1381913876931, 37.519404484602234], [127.13826366737258, 37.519372168737775], [127.13833977707291, 37.51933972214183], [127.13842683918186, 37.519317487172124], [127.13847665447621, 37.519305136009656], [127.13852042148828, 37.51932860975891], [127.13856932214978, 37.51935549371969], [127.13901106879062, 37.51916043314215], [127.13966982817422, 37.51886954086257], [127.1405777210313, 37.51846862623427], [127.14078213580467, 37.51838015325576], [127.14140252751818, 37.5181254584267], [127.14341830078784, 37.51721754679938], [127.1437126188475, 37.51708913495857], [127.14382778727749, 37.51703895299535], [127.14387720619291, 37.51703283125095], [127.14418497350624, 37.51699438381237], [127.14429521129297, 37.516980636616566], [127.1449197604438, 37.51688577832443], [127.14508574247874, 37.516885937383535], [127.1450900638618, 37.51688597740946], [127.14509094307958, 37.516885984558165], [127.1450939344952, 37.51687510512311], [127.14511828475571, 37.516779408832235], [127.14526123405447, 37.51663469952352], [127.14532250428299, 37.516597626726735], [127.14543057534534, 37.51642317215668], [127.14543975522575, 37.516320239201995], [127.1454260065631, 37.516134614279714], [127.14543268660321, 37.51606878189407], [127.14543342247144, 37.51606153536828], [127.14519090278927, 37.51592350116944], [127.14510359556533, 37.51589600158184], [127.14501820033189, 37.515851396262896], [127.14494037050255, 37.515769149406374], [127.14489513026669, 37.515701486233986], [127.1448493168268, 37.51567026690066], [127.14461730804699, 37.51559698436067], [127.14460784125603, 37.51559149724186], [127.14443836979326, 37.515598783962204], [127.14428931401903, 37.515613030932116], [127.14410633360401, 37.51561914438392], [127.14397590498625, 37.51561378842668], [127.14387615572778, 37.51562843947221], [127.1433708977696, 37.51556448321804], [127.14304111251204, 37.51558429490782], [127.14288690568807, 37.51558925405536], [127.1426194849842, 37.5155715537373], [127.1424215486304, 37.515606805352824], [127.14213125582843, 37.51564185616529], [127.14205389637421, 37.51562270401494], [127.1418268613945, 37.515642732616406], [127.14174309625746, 37.51563397334474], [127.14169841725878, 37.51558563490539], [127.14118479395431, 37.51553504804665], [127.14079595505996, 37.515563031461824], [127.14061718353882, 37.515575606042844], [127.14063161472663, 37.51553852114396], [127.14066671907297, 37.51551103011496], [127.14075439674222, 37.51544712361593], [127.1408721894537, 37.515353105858765], [127.14097294128979, 37.51527661269943], [127.14118341843186, 37.51509487656786], [127.14123094268948, 37.51503094056132], [127.1413729205107, 37.51497092834439], [127.14154457844114, 37.514934009635724], [127.14167043004241, 37.51488839601447], [127.14177134698207, 37.51480972948737], [127.14181644962406, 37.51478780819222], [127.14202348013808, 37.51470506725685], [127.14213498106145, 37.51464299858471], [127.14220834641957, 37.51457180610285], [127.14257606718887, 37.51436653504748], [127.14259962841138, 37.51436655947189], [127.14265506228104, 37.51433525711399], [127.14271036454959, 37.51427078608966], [127.14272904746989, 37.51425160938446], [127.1427322533071, 37.514248020852484], [127.14281820512983, 37.51419416495473], [127.14285888836781, 37.5141686812394], [127.14295019922848, 37.514089137366604], [127.14300603003635, 37.5140568607702], [127.1430299953988, 37.51404542463682], [127.143111709561, 37.51400573050241], [127.14317064817715, 37.51397639804574], [127.14332529617282, 37.513899434709316], [127.1434212290254, 37.51388235154591], [127.14340602883456, 37.51387356156404], [127.14339828655936, 37.51386908366867], [127.14340313890106, 37.51371991692772], [127.14340322344725, 37.51371736813683], [127.14340438296163, 37.513713868952415], [127.14343504116177, 37.51362158832802], [127.14343150836807, 37.513571424188164], [127.14338037894228, 37.51351539271642], [127.14336615526769, 37.51344740885588], [127.14343288501652, 37.513217603956335], [127.14341765346784, 37.51313575774304], [127.14346926094119, 37.513062226438564], [127.14348181379373, 37.51289342695631], [127.14353983066268, 37.51265726902718], [127.14352764159985, 37.5126587339079], [127.14342334622813, 37.512671258078235], [127.14303958920196, 37.512715094856496], [127.14288443576297, 37.512733541812466], [127.14271409961971, 37.51269922659173], [127.14269607348244, 37.51269559456577], [127.14261732152319, 37.51265607864553], [127.1422249091193, 37.51253063999396], [127.14221548142946, 37.51252940541746], [127.14221110354404, 37.51252798062651], [127.14207497407708, 37.51250699735786], [127.14194951431699, 37.5124700561466], [127.14191316133925, 37.512458508584885], [127.14171570468615, 37.512440984968194], [127.14158338655486, 37.51242827456137], [127.14151044849908, 37.51241896389955], [127.14143940605922, 37.512400605685556], [127.141392941074, 37.512360839030585], [127.14133998132576, 37.51226830684114], [127.14127773138269, 37.512152707646315], [127.14123741707334, 37.511677371864415], [127.14119940514604, 37.51153855147859], [127.1411909531893, 37.51150725130621], [127.14116345625997, 37.51132548508462], [127.14115355824977, 37.51125826401038], [127.14111537900457, 37.511150919485004], [127.14110592234775, 37.511124344788485], [127.14112299272527, 37.51108597526744], [127.14122012294688, 37.511046918743794], [127.14122060252446, 37.51104270183395], [127.14121993944215, 37.51103514101181], [127.14121922508747, 37.51098912259221], [127.1412191828355, 37.510985893790995], [127.14124198085342, 37.510995034327365], [127.14123870850328, 37.51083570353147], [127.14122389969597, 37.5107848056008], [127.14121197858674, 37.51076131238772], [127.14118363446158, 37.51076129479242], [127.14094761430258, 37.51039363195377], [127.1407322501999, 37.510349504494215], [127.1406674421065, 37.51031983737905], [127.14057641939027, 37.51026140737072], [127.14045439282063, 37.51022441191842], [127.14034910063559, 37.51021677773386], [127.1403511265089, 37.51020582696428], [127.14036197882182, 37.51014707868434], [127.14037171069758, 37.5100945121272], [127.14036439823445, 37.51004325473019], [127.14028454570162, 37.50991419274152], [127.14024675964751, 37.50985310242803], [127.14024979636105, 37.50967302524922], [127.14025062095355, 37.50962357010688], [127.14023905540698, 37.50950487617145], [127.1402144500158, 37.50939173996446], [127.14018147977373, 37.50929908422361], [127.14018237643174, 37.50923344536835], [127.14016302391224, 37.509159595626855], [127.14014640229131, 37.50910094122638], [127.1401254515912, 37.509098157092346], [127.14012633067287, 37.509066827573406], [127.14012503111404, 37.509036789376076], [127.1401072614035, 37.5090054093486], [127.14008890844097, 37.508982393069424], [127.14003606792735, 37.508811426912736], [127.14001323191295, 37.508725311626385], [127.13999042590572, 37.508667827247244], [127.13995375037292, 37.50852411608244], [127.13995196458824, 37.508517116080014], [127.1400137452802, 37.50851544847613], [127.1400140768441, 37.50851543957164], [127.14011658757393, 37.508439671682765], [127.14020802164619, 37.508368486735044], [127.14031607412065, 37.50828560037813], [127.14032937822839, 37.508275396022114], [127.14038751211324, 37.50809327099872], [127.14038792461423, 37.50801624556577], [127.1403593934843, 37.50794457803451], [127.14031627216141, 37.5078222204069], [127.14034697971226, 37.507752004156245], [127.14050939893667, 37.50764008084215], [127.140544918947, 37.50764359067294], [127.14056707937955, 37.507645779008506], [127.14068710455663, 37.50759264930214], [127.14075122153632, 37.507550246003824], [127.14088465131627, 37.507437959083234], [127.14114281126827, 37.5071575632075], [127.14117703624115, 37.50712831165366], [127.14125629378907, 37.50706057174278], [127.14126504084791, 37.507050441771966], [127.14135317092546, 37.506948435559515], [127.1414486684364, 37.50682047081236], [127.14147936669653, 37.506779332130826], [127.14151536904224, 37.50671052964202], [127.14151634306356, 37.50670866858336], [127.14151292785414, 37.50670262360665], [127.14150685650792, 37.50669765851156], [127.14142523994954, 37.50661719866694], [127.1413359547104, 37.506504327775126], [127.14131525233608, 37.50647816149761], [127.14129154905432, 37.50644828331225], [127.14126828667835, 37.50641895629129], [127.14117758796279, 37.50631924986991], [127.14099691967084, 37.506164303174295], [127.14095239950645, 37.50611950541766], [127.14081266671157, 37.50597887208288], [127.14084442451139, 37.505935971917204], [127.14089471618168, 37.5058680504181], [127.14094506106966, 37.50579939264632], [127.1409527252113, 37.50578926931954], [127.14095376773263, 37.50578751663679], [127.14096252789298, 37.505775573187115], [127.14104401651004, 37.50564308459173], [127.14104294216274, 37.505637779520505], [127.14114929107792, 37.505458300914036], [127.14119452701182, 37.50544308363844], [127.14120243438103, 37.505438389030786], [127.141250572908, 37.505409824179324], [127.14133943512778, 37.50536580744104], [127.14134288736815, 37.50536409632297], [127.1413878234718, 37.50534176361823], [127.14144446298963, 37.50532416251324], [127.1415256309171, 37.50529868671483], [127.14212227366042, 37.50507603434092], [127.14223273760177, 37.50488492612002], [127.14247923900702, 37.50478748714858], [127.14270146372208, 37.50469963592462], [127.14288929041798, 37.5046253854955], [127.14342378590791, 37.504414091356566], [127.1434365041986, 37.50442286934775], [127.14411586219957, 37.50449707922427], [127.1443983698541, 37.504316979892714], [127.14450916818663, 37.50429393386781], [127.14455139436386, 37.50428515187907], [127.14464655903032, 37.50424248651806], [127.14466746879167, 37.50423479951169], [127.14468718031566, 37.50422736668681], [127.14471483589037, 37.50425326486191], [127.14474359742954, 37.50424275135226], [127.1447277403824, 37.504212508052234], [127.14493669579197, 37.5041359653448], [127.14498817292893, 37.50411675521174], [127.14502940986466, 37.50406453166382], [127.14510115920467, 37.50397151311496], [127.14518521135126, 37.503865319317086], [127.14526734488157, 37.50376093774181], [127.14524614819767, 37.50364686085926], [127.14531239994042, 37.503565448721915], [127.14532767341917, 37.50354735197426], [127.14551565358018, 37.5033246201055], [127.1455303103025, 37.503307251582854], [127.14610989623465, 37.503232609758086], [127.1462122594124, 37.50322962730711], [127.14623923524516, 37.50322985501748], [127.14634034950885, 37.503351565794404], [127.14649969817641, 37.50335665051818], [127.1465419869917, 37.50335793981766], [127.14657789479948, 37.503317695094786], [127.14650912653195, 37.50323776929629], [127.14672777184013, 37.50325160849702], [127.14686517805417, 37.503260306462884], [127.14687200971478, 37.50326288224588], [127.14687510067559, 37.50326312313584], [127.14708177037214, 37.50331132635091], [127.14724276524875, 37.50336064390757], [127.14725338502, 37.5033639024951], [127.14725959307935, 37.50336580487908], [127.14753430162747, 37.50328677142944], [127.14769734755744, 37.503239864208936], [127.14771631090704, 37.503233825755466], [127.1477305829321, 37.5032445242153], [127.14776282721671, 37.50326796743809], [127.14789400233498, 37.503395097175456], [127.14803488397064, 37.50350563457712], [127.14825520690714, 37.50357136013235], [127.14849569110281, 37.50364060109179], [127.14854331952398, 37.50365485092022], [127.1487047675792, 37.50377321844693], [127.14890824941008, 37.503889293238004], [127.14903046344452, 37.50396083333787], [127.1490774268859, 37.503992733241546], [127.1492337076725, 37.50409889107103], [127.14938021373912, 37.50419847579484], [127.15000000661881, 37.50455658780893], [127.150041886025, 37.504580785452276], [127.15025968103028, 37.50467674676817], [127.15026314847343, 37.50467827492717], [127.15043311652225, 37.50448166377122], [127.1505506999322, 37.504345642870994], [127.15086779318099, 37.50409415956714], [127.15100695764653, 37.503969845773554], [127.15103960650976, 37.50394068402576], [127.15116700581054, 37.5038268884261], [127.1513298868041, 37.50368140819483], [127.15158576940303, 37.50345284053363], [127.15164566969729, 37.50339933388709], [127.15165344550607, 37.50339622548653], [127.15170197112651, 37.50335090208167], [127.15173392076548, 37.503395430713354], [127.1517836057771, 37.50346465304649], [127.1517361127839, 37.503394590797136], [127.1517094452452, 37.50335525786636], [127.15213362849828, 37.50298535401011], [127.15231319588528, 37.503006289500796], [127.15240203160192, 37.50304553483896], [127.15250480248673, 37.50309093774559], [127.15256438396085, 37.503117259705455], [127.15283079272092, 37.50306979846837], [127.1532462276126, 37.50270041470388], [127.15399451147763, 37.50267001379274], [127.15570289097876, 37.502153273598566], [127.1565013046441, 37.50190644162315], [127.15650484099376, 37.50190749928898], [127.15651076578706, 37.50190927237034], [127.15655480729383, 37.50189457301604], [127.15662297482355, 37.50196915879949], [127.15675003875185, 37.502108179208136], [127.15763109527298, 37.50307219010169], [127.1576968771921, 37.50314416160188], [127.15772908991866, 37.503179406256024], [127.1583324704347, 37.50276072348375], [127.15867681364175, 37.502521781760215], [127.15886588743521, 37.50239057942664], [127.15899282491532, 37.5020793594544], [127.15901424754296, 37.50202685745663], [127.15907429392296, 37.501879591347326], [127.15911769965437, 37.50181001787489], [127.15932111034185, 37.50148398344329], [127.15938540792045, 37.501380921411176], [127.1604636407143, 37.50112517942961], [127.16048734165045, 37.501098929571434], [127.160504120011, 37.501094867579766], [127.16097312599045, 37.5006363141888], [127.16115191398887, 37.50046150855723], [127.1611756400014, 37.500443129326236], [127.1611840573721, 37.500430081909975], [127.16121923824974, 37.50039568406044], [127.16123202315066, 37.50035572366543], [127.16128841530814, 37.50026829817201], [127.1613585816675, 37.50024420941863], [127.16135945965306, 37.50021864388624], [127.16139013170357, 37.5002013337088], [127.16143084867716, 37.50002297341852], [127.16142375076096, 37.500000643450775], [127.16142355220481, 37.50000001823745], [127.16140614828971, 37.499945249337806], [127.16138765817723, 37.499710625740605], [127.16141496456964, 37.499706530699555], [127.1614200024231, 37.499705778980534], [127.16139090790102, 37.49963484848761], [127.16138917343882, 37.49963061612533], [127.16138198979436, 37.49961300093583], [127.16135515876705, 37.49953689408616], [127.16128730597522, 37.49944316515503], [127.16125072620159, 37.499391394159794], [127.16124856192631, 37.49938964832371], [127.16124446933108, 37.499384012084946], [127.16118012740897, 37.499334586119005], [127.16115036840303, 37.49931064169272], [127.16113402346815, 37.49929749800848], [127.1610690384434, 37.49924521281722], [127.16106236071867, 37.49923333172544], [127.16105957729616, 37.49922840229924], [127.16101270945454, 37.499145099084885], [127.16100784499724, 37.499074968122834], [127.16100540699462, 37.49907121145795], [127.1610050000356, 37.49906613561818], [127.16095295040897, 37.49898293468547], [127.16088437446264, 37.4989267542112], [127.16085505535236, 37.498895654152236], [127.16080845331356, 37.49884622482717], [127.16080749659126, 37.49884514044488], [127.16080719297184, 37.49884473395987], [127.16075428410738, 37.498758988627245], [127.16068115012715, 37.49863261484092], [127.16063284456045, 37.498549694925394], [127.16060944913973, 37.498427141527216], [127.16060863324199, 37.49825496086295], [127.16060871905728, 37.49824099899964], [127.1606095983648, 37.49810170491621], [127.16059258264724, 37.49793689591649], [127.16058143098843, 37.49779624225622], [127.16058338889005, 37.49776858505497], [127.16058359417082, 37.497763222535646], [127.16058479126322, 37.4977311915383], [127.16058907787244, 37.49763144100953], [127.16057776618406, 37.49759364140381], [127.16057104916773, 37.49756049701754], [127.16050013717823, 37.49745841219798], [127.16048740400494, 37.49743974443245], [127.16048001747775, 37.497434549380486], [127.16036418506843, 37.4973467030923], [127.16028143241893, 37.497248820502215], [127.16026846932354, 37.497233478080716], [127.16023934263549, 37.49721753934014], [127.16009965675379, 37.49714106248045], [127.15999528985272, 37.49706718388791], [127.15977959242831, 37.49682366359283], [127.1597659675804, 37.4966649664358], [127.15976325277637, 37.49661253534323], [127.1597468379893, 37.49657008794922], [127.15974067876039, 37.49654625619768], [127.15979455466551, 37.49636087478978], [127.15982348715232, 37.49623497458774], [127.15985926970684, 37.49615017822944], [127.1598394018575, 37.49602102779806], [127.15984561882348, 37.495974760702396], [127.15988072585522, 37.495811886312225], [127.15987085804596, 37.4956853425677], [127.15990512792942, 37.49558229824078], [127.15998400015668, 37.49542768008928], [127.15997181902718, 37.4952848600801], [127.15998358627316, 37.49522452965219], [127.1599859591665, 37.49518272224041], [127.15997891408423, 37.495054861611415], [127.1600217653421, 37.4947182265945], [127.1600311595826, 37.494390247504754], [127.16002590225986, 37.494379596287565], [127.1600260253179, 37.49437490955211], [127.15995595581778, 37.49422755129955], [127.15988258421037, 37.494084987762704], [127.15982938710057, 37.49396648557866], [127.15981339492158, 37.4939307455369], [127.15981004263286, 37.49391162697868], [127.15979416872173, 37.49383236043338], [127.15977200787776, 37.49374499956258], [127.15975668361904, 37.493641839447136], [127.15974521118846, 37.4936372004381], [127.1597423785701, 37.49363071147625], [127.15973652004698, 37.493610468005926], [127.15972728676799, 37.493578560185064], [127.15971558462645, 37.493554739496254], [127.15965986436981, 37.49344146688092], [127.15960356861036, 37.49337776757317], [127.15951669236073, 37.49327487895713], [127.15936776777312, 37.493174488436615], [127.15931816317317, 37.49313706500382], [127.15929374454895, 37.49312354624014], [127.15927181170987, 37.49310818684546], [127.15925956580716, 37.49310201324022], [127.15918699328304, 37.49306544289582], [127.15909257232713, 37.49297506115242], [127.15906919876923, 37.49295314464933], [127.15905458036238, 37.4929388338766], [127.15900714661787, 37.49289177198704], [127.15898803592772, 37.49286779463555], [127.15890287491295, 37.492756203340825], [127.15881400093586, 37.49264024767389], [127.15866905693436, 37.492451146539615], [127.15865067175372, 37.492426882791996], [127.15854322871517, 37.492193056017136], [127.15853316747287, 37.492166743172085], [127.15850928671526, 37.492094817432665], [127.15847922838825, 37.49204798582232], [127.1584608116063, 37.49197107329847], [127.1584768877602, 37.4919483873802], [127.1583978011902, 37.49171552576326], [127.15836058590443, 37.491590948828765], [127.15832628606023, 37.491402509673975], [127.15826752217725, 37.491153626392915], [127.1582775047046, 37.49102832062603], [127.15827781901785, 37.49102388682503], [127.15829522302066, 37.490786662140245], [127.158260556826, 37.490636538862034], [127.15818451063473, 37.49054369470874], [127.1581766825325, 37.490536289889214], [127.15816996223086, 37.49051912650315], [127.15816047285091, 37.490511374357474], [127.15808166458366, 37.490446311194624], [127.15807305413563, 37.490439309717694], [127.15798911753676, 37.49036771478877], [127.1579748372896, 37.490361264750184], [127.15797210541582, 37.49036003098632], [127.1579678375579, 37.490358260970844], [127.157965423051, 37.49036185042272], [127.15782717910827, 37.490302383730345], [127.15769624248158, 37.49021574389792], [127.157649220784, 37.490183059395775], [127.15751818043029, 37.49009197534014], [127.15745650872903, 37.49004469126299], [127.15738614935144, 37.48999249656659], [127.15733799286694, 37.48997304067233], [127.15728209070012, 37.48995046159719], [127.15731658728332, 37.48994902934414], [127.15732418043311, 37.48995088113746], [127.15735642526218, 37.489961980314554], [127.15759040411946, 37.489909261879255], [127.1578817130792, 37.489895855249586], [127.15791803172506, 37.48989422979707], [127.15807493823269, 37.48989444966178], [127.15816566884362, 37.48989493755837], [127.1582906790213, 37.48989444290193], [127.15829102968591, 37.48989444391618], [127.15832178657087, 37.48989448780359], [127.15838186317266, 37.48989469758963], [127.15840576855695, 37.489836836045406], [127.15840701291727, 37.48982688858438], [127.15840789377306, 37.48982472785757], [127.15840943324025, 37.48981207715766], [127.15842780354593, 37.489814609022176], [127.15843195956191, 37.489806157229616], [127.15844820916425, 37.48977508912188], [127.15846338799547, 37.48974317063405], [127.15848078968321, 37.48971992969196], [127.15852329173077, 37.489671991815015], [127.15848545445617, 37.48964942045262], [127.1584668760409, 37.48963794646392], [127.15843820200058, 37.48962021485965], [127.15839834024722, 37.48958267497269], [127.1583857687508, 37.48957113721685], [127.15835663255764, 37.489555540489185], [127.15822713344882, 37.489486229610286], [127.15816769893637, 37.489454410765624], [127.15781286433204, 37.48926449370258], [127.15776451128818, 37.48923861068511], [127.15762348266112, 37.48918750033997], [127.15743032244826, 37.48907847926372], [127.1571934884578, 37.48894461574981], [127.15717715833749, 37.488933824104464], [127.15717361687082, 37.48893154239032], [127.1569984226525, 37.48881227014555], [127.15657900507244, 37.488575200776175], [127.15638217120457, 37.488486033369355], [127.15629197899966, 37.48843506927813], [127.15617274593474, 37.4883676788727], [127.15583020037403, 37.48817405094252], [127.15550040563934, 37.4879876250432], [127.15549815384011, 37.48799025947435], [127.15548288762673, 37.487981895366104], [127.15547213474454, 37.48797599612827], [127.15534111029986, 37.487937026564566], [127.15499484047308, 37.487747351344716], [127.15495548481887, 37.48772579295622], [127.1549552835762, 37.48772527859085], [127.15495470814425, 37.4877249614328], [127.15492328458677, 37.48770774373406], [127.15379825070056, 37.48709153368019], [127.15374102356085, 37.4870601787675], [127.15358667640353, 37.48692097929442], [127.15316222541767, 37.486688488976775], [127.15296306142154, 37.4866012649838], [127.15262514168178, 37.48641616823156], [127.15255507572654, 37.48637778941915], [127.15253203635908, 37.48636516565632], [127.15231560068602, 37.48629276228617], [127.15217784351164, 37.486235796192524], [127.15203154757096, 37.48613225833036], [127.15191667616014, 37.48603088601137], [127.15190470528594, 37.48602432486357], [127.15181667812249, 37.48597610387378], [127.15169519810934, 37.485909558612185], [127.15156416790727, 37.48587059385428], [127.1513299190448, 37.485742269571375], [127.15110761910103, 37.48562050598803], [127.15078150989723, 37.48544185654217], [127.15042997164278, 37.485249285999046], [127.15036918412783, 37.48520825628697], [127.15021732266615, 37.48510577232344], [127.15012205430128, 37.4850414753271], [127.14999999506848, 37.4849591076548], [127.14992148268884, 37.48490611817601], [127.1494657314527, 37.484427223916654], [127.14941209836216, 37.48435131409621], [127.14940199930437, 37.48433642062532], [127.14940152744714, 37.48433573418796], [127.14936646716208, 37.484284045044525], [127.14909446782963, 37.48388305863323], [127.14868282143365, 37.484043585207964], [127.14857879952929, 37.48389025116925], [127.14856647651979, 37.48387207004383], [127.14839572893946, 37.483620351687364], [127.1482249711048, 37.48336865107263], [127.14819030039067, 37.48326068151764], [127.14808506750798, 37.4831055316792], [127.14805841111144, 37.48306623389619], [127.14803574256315, 37.483032806857956], [127.14795603193889, 37.48291530181309], [127.14788896999855, 37.48281645660657], [127.14777014558355, 37.482624562395124], [127.14766955137938, 37.482426160487556], [127.14762863252687, 37.48232424732024], [127.14760667502581, 37.48226955911866], [127.14760437175401, 37.482263864636344], [127.14759348269745, 37.48223669206048], [127.14758772505276, 37.48222234318483], [127.14757746789819, 37.48218826803678], [127.14752510220232, 37.48201425655807], [127.14748207321135, 37.48180303752169], [127.14747838720163, 37.48177387638034], [127.1474588473558, 37.481589849481736], [127.14739661640463, 37.48058608388764], [127.14731621406028, 37.47929294360746], [127.14731239806724, 37.47923131488035], [127.1473090427006, 37.47917756546089], [127.1472964264935, 37.478974134699286], [127.14728188477739, 37.47874002471539], [127.14724129612286, 37.47863336214552], [127.1472176401632, 37.478252167146714], [127.14721732527002, 37.47824697434112], [127.1472168411542, 37.47823928424778], [127.14721683231578, 37.478229134845606], [127.14721359489869, 37.4781767828833], [127.14719252677637, 37.477837004312285], [127.14718947750261, 37.4777879428921], [127.14715893698121, 37.477295507762776], [127.14714509893557, 37.47722219442324], [127.14712488422911, 37.47722299035086], [127.147077644936, 37.477224850292416], [127.14584329129254, 37.47727346318508], [127.14581538403709, 37.47727462341819], [127.14575623324727, 37.47727690682126], [127.14574865416238, 37.47727719957614], [127.1443702500192, 37.477331539455], [127.1443324298846, 37.47672287762414], [127.14432076061956, 37.4766125604058], [127.14429959812739, 37.47650314301295], [127.14426898520968, 37.47639514836155], [127.1442291343116, 37.47628909987624], [127.14422262845619, 37.476275352486724], [127.1441913762539, 37.47620920629861], [127.14419044686613, 37.47620723852261], [127.14418016752538, 37.47618549366675], [127.14413428604193, 37.47610386301151], [127.14412328204156, 37.4760846848603], [127.14404027342741, 37.47595237571851], [127.14399510431893, 37.475880373739486], [127.14394520965246, 37.47580083109814], [127.14376096501339, 37.4755071245467], [127.14371453798546, 37.47542624020986], [127.14367521340006, 37.47534300668041], [127.14364320427805, 37.47525781219506], [127.1436186331613, 37.475171044716575], [127.14360163368511, 37.47508313730817], [127.1435929105081, 37.475000500810225], [127.14359228293554, 37.474994522861195], [127.14358878516396, 37.47493801469436], [127.14358354310048, 37.474853477798256], [127.1435731320517, 37.474685693175594], [127.14356699733588, 37.47458670468585], [127.14356402500519, 37.47453863488517], [127.14352636698433, 37.47393081128543], [127.14325538596495, 37.47394146784816], [127.14227869518479, 37.47397991475686], [127.14212061518153, 37.473986133223256], [127.14166896435088, 37.47400390041117], [127.14136839155617, 37.47401572481366], [127.1413498744071, 37.474016452798416], [127.14132825785033, 37.47401730657702], [127.14096325383836, 37.47403166549011], [127.14057688714625, 37.474019809667894], [127.14009961493313, 37.474038574555784], [127.13996580400635, 37.47407090451972], [127.13959460072533, 37.47408550171022], [127.13956009866274, 37.474087172159365], [127.13952485156648, 37.474088551888414], [127.13948791898521, 37.474090007587385], [127.13911936235228, 37.47410452122284], [127.13833382340752, 37.47413545194532], [127.13819749240376, 37.47412730086109], [127.13807977181209, 37.47413193391106], [127.13802994394878, 37.47413388146138], [127.13801253523377, 37.47413457626392], [127.13766366042944, 37.47414831639545], [127.13762288182069, 37.474149921963246], [127.13751078304837, 37.47415433733216], [127.13750707353356, 37.47415433496573], [127.13743153759764, 37.47415424742889], [127.13733702437631, 37.47415413765356], [127.13702971213165, 37.47415379794578], [127.136842291627, 37.47415358261248], [127.13676972714742, 37.47415644223791], [127.13669813670772, 37.47415900736287], [127.13668958159337, 37.474160062697415], [127.13639672541423, 37.47417087963216], [127.13626291264704, 37.47420321440587], [127.13609128031892, 37.474209959957705], [127.13602019759355, 37.474212760590504], [127.13587779231356, 37.47421883871259], [127.13546805504652, 37.47424060524504], [127.13528708838778, 37.47425744316888], [127.13528266978665, 37.47426604658749], [127.13506016430128, 37.47429658289155], [127.13433896327433, 37.47441310817315], [127.13366033000499, 37.47453180713017], [127.13352054787508, 37.47452859746122], [127.13312987473641, 37.47459694350449], [127.13312220924676, 37.474580253451755], [127.13285582129781, 37.47462685589327], [127.13273902433114, 37.4745557627567], [127.13273310267238, 37.474462380890294], [127.13273077242421, 37.474425498775574], [127.13272635284962, 37.47437645975628], [127.132713655244, 37.47436659540117], [127.13268681535622, 37.474286182254225], [127.13259233833955, 37.472795380927664], [127.13260048816223, 37.47252822336119], [127.13262331401687, 37.47239575747167], [127.13265850370969, 37.472265006552924], [127.1326670996726, 37.4722417059223], [127.13269716252935, 37.472160225747146], [127.13275896295289, 37.47199471970898], [127.13279994208422, 37.47185018681614], [127.13282862578198, 37.471703794939984], [127.13283742809475, 37.471605915900255], [127.13284489560041, 37.47153815636811], [127.13282401545264, 37.471201323049904], [127.13265652953581, 37.4712079232824], [127.13264058110646, 37.47108367444906], [127.13261530931759, 37.47096039714036], [127.13258080234675, 37.470838569348835], [127.13257655089453, 37.47082686540866], [127.13254957716005, 37.47076021563247], [127.13253979114315, 37.47073325237613], [127.13253625349694, 37.47072358774192], [127.13253331783646, 37.47071570067123], [127.13252933901487, 37.4707060617058], [127.13252525929725, 37.470696242153174], [127.13252116822773, 37.470686431578756], [127.13251696411506, 37.47067661163897], [127.1325126577386, 37.470666890531255], [127.13250834009854, 37.4706571603747], [127.13250403332715, 37.4706475203884], [127.13249960211563, 37.47063788902856], [127.13249518181692, 37.470628338825456], [127.13249075060763, 37.47061870746526], [127.13248621678161, 37.47060924704533], [127.13248157026568, 37.47059970515175], [127.13247702508899, 37.47059025370981], [127.13247237773687, 37.47058088307283], [127.13246773078313, 37.47057143131394], [127.13246295903636, 37.47056206028968], [127.13245819811414, 37.47055278844916], [127.13245343719308, 37.47054351660844], [127.13244855192038, 37.47053423536705], [127.13244379100168, 37.47052496352592], [127.13243891655469, 37.470515781468094], [127.13243392902079, 37.470506599058254], [127.13242904287019, 37.47049749808655], [127.13242405489734, 37.47048840581155], [127.13241906692569, 37.47047931353633], [127.132414078558, 37.47047030238264], [127.13240897705938, 37.47046129989043], [127.13240387556196, 37.47045229739801], [127.13239877362435, 37.4704433850406], [127.13239367168794, 37.47043447268299], [127.13238856979689, 37.470425551311614], [127.13238335433356, 37.470416728736986], [127.13237825195934, 37.470407906513934], [127.13237303649842, 37.470399083938815], [127.13236782103871, 37.47039026136348], [127.13236260513881, 37.470381528923156], [127.13235738884278, 37.47037287760434], [127.1323520598574, 37.470364144811676], [127.13234684351963, 37.470355502505896], [127.13234151409524, 37.47034685984802], [127.13233629775989, 37.47033821754176], [127.13233096789644, 37.47032966501865], [127.13232564934297, 37.47032111253048], [127.13232031908461, 37.470312641128615], [127.13231498922477, 37.47030408860477], [127.13230965892465, 37.47029562621593], [127.13230432862571, 37.47028716382687], [127.13229900919525, 37.47027879160798], [127.13229356581097, 37.470270328866505], [127.1322882350741, 37.470261956611935], [127.13228291520568, 37.47025367452759], [127.13227747138347, 37.47024530192061], [127.13227214025278, 37.470237010787045], [127.13226680907907, 37.47022872866676], [127.13198255268836, 37.46979864007228], [127.13199615177618, 37.46975131562019], [127.13201336657745, 37.46970462436903], [127.13203396914498, 37.46965892615399], [127.1320580839572, 37.46961420333355], [127.13208535898232, 37.46957075226044], [127.13216690939119, 37.46946641158231], [127.13224348381291, 37.46935973884732], [127.13231518315598, 37.46925091465238], [127.13231902426905, 37.46924477928488], [127.13234958146506, 37.469136079424366], [127.13241462699398, 37.46903266970201], [127.13245711161454, 37.46895693383246], [127.1324981286391, 37.468880661575895], [127.13255695980271, 37.46878067566287], [127.13268308219261, 37.46858036949456], [127.13270510316583, 37.46854509535947], [127.13279937607938, 37.468394057906664], [127.13274361291353, 37.468380219890854], [127.13213208283833, 37.46822851956525], [127.1320967562557, 37.46821896326059], [127.13204478279069, 37.46820491137247], [127.1319591172299, 37.46817777484869], [127.13187442016093, 37.46814686455371], [127.13179507219002, 37.468115943824905], [127.13173102948197, 37.468090992722175], [127.13164794561298, 37.46805861806476], [127.1316470990723, 37.468058290933875], [127.13138589075689, 37.46795506311364], [127.13136920859912, 37.46794855728785], [127.1310113322833, 37.46780913461371], [127.13091937748085, 37.46777330654953], [127.13087531558477, 37.46775796286244], [127.13082979129582, 37.467745652195966], [127.13078301902526, 37.46773646535499], [127.1307356202857, 37.46773049441694], [127.13068767418561, 37.46772774864193], [127.13063958768771, 37.4677282563424], [127.13059175657934, 37.46773201875541], [127.13058441198051, 37.46773310447576], [127.1305444862695, 37.46773901880885], [127.1303011664478, 37.467783623587046], [127.1302024120832, 37.46780130585873], [127.13014054133755, 37.46775112242466], [127.12984416523834, 37.46780642165188], [127.1294863607072, 37.46792125209291], [127.12905758490096, 37.468003508629494], [127.12889328147581, 37.46808372814657], [127.12876855254824, 37.4681101430052], [127.12780431721269, 37.468314370043245], [127.12703415286357, 37.468419114165386], [127.12688073133084, 37.468507225133145], [127.12682874383282, 37.468537103510506], [127.12637260482124, 37.468799077452296], [127.12602637547275, 37.46911265821739], [127.12592527938251, 37.46918214904433], [127.12565181022393, 37.469368163285225], [127.12521120023506, 37.46963243529727], [127.12500004647679, 37.469615585855536], [127.12488742136325, 37.46960660230589], [127.12488463559019, 37.469598309906594], [127.12486343024119, 37.469535201031945], [127.12493877997638, 37.469499187269506], [127.12493637392177, 37.46949185152476], [127.12493691777252, 37.469491645936735], [127.12493191815126, 37.46947828984666], [127.1249033343877, 37.46939129839221], [127.12495069835902, 37.46930022145056], [127.12500003264103, 37.46911578721759], [127.12502593830074, 37.46901898155971], [127.12503764641174, 37.46899336582639], [127.12506316890959, 37.468982314937456], [127.12513498713815, 37.46884263270758], [127.12517596421281, 37.46876677750954], [127.12514972701861, 37.468479347684514], [127.12519232808516, 37.46836810096708], [127.12518682953917, 37.46803338812775], [127.12521134837274, 37.46784049234015], [127.12512329999014, 37.467722692875085], [127.12510001544938, 37.46773179491522], [127.12509420180037, 37.46771841821828], [127.12508133395356, 37.46768872243253], [127.12509947754995, 37.46759267629503], [127.12507543911394, 37.46748328228954], [127.1250721773373, 37.46746841741916], [127.12509614467993, 37.46745164692062], [127.12510263235907, 37.46744780064103], [127.12510243155468, 37.46744725017035], [127.12510677790652, 37.46744420832685], [127.1250730300794, 37.46733616260493], [127.12505095673245, 37.46727938759412], [127.12504765829821, 37.46726507243989], [127.12500516108366, 37.46725147116828], [127.12500004224721, 37.46725068876229], [127.12499476522963, 37.467249878813035], [127.12494757749222, 37.46720861772112], [127.12493947563736, 37.46720056082965], [127.12493109399838, 37.46718965473103], [127.12490020550072, 37.467147661164546], [127.12489944311197, 37.467146342749224], [127.12486872430112, 37.46709302854803], [127.12485995422264, 37.46707160226248], [127.12484970131143, 37.467041409984866], [127.12484099540605, 37.46702524788268], [127.124835901037, 37.46701278383555], [127.12476701332191, 37.46691934576791], [127.12474528957446, 37.46690129451869], [127.12472462295449, 37.46688894325996], [127.12472431866794, 37.46688873497928], [127.12466461892717, 37.46685304955073], [127.12458285481985, 37.46680413404228], [127.12456988101579, 37.46678891380918], [127.12453263883008, 37.466746665602756], [127.12452897108246, 37.4667022075578], [127.12452844329238, 37.466701466760085], [127.1245283081412, 37.46669909573626], [127.12448785169573, 37.466643830580715], [127.12420953943551, 37.46651758375468], [127.12420670668548, 37.46652097289855], [127.12420570237649, 37.46652054606233], [127.12419109772118, 37.46653972576775], [127.1241860778678, 37.466546289779885], [127.1241836520755, 37.466549707258466], [127.12408334906131, 37.466691524727985], [127.12407947696043, 37.4666969656783], [127.12401112967105, 37.46679166213822], [127.12392346136657, 37.466914654062066], [127.12377848585905, 37.46711801860992], [127.12375606219246, 37.4671494049093], [127.1237422370744, 37.46716868618904], [127.12374153099103, 37.46716967544402], [127.12369766603058, 37.4672304681455], [127.12350565897263, 37.4674988693916], [127.12340429732627, 37.467637050376254], [127.12337786634839, 37.4676736968231], [127.12330540700222, 37.467776203610185], [127.12325846382, 37.46783956423601], [127.12325787175773, 37.46784036456455], [127.12319666645556, 37.46792438408065], [127.12307441668732, 37.4680963444703], [127.12274222889596, 37.46855711748724], [127.12272624642524, 37.46858027664366], [127.12271662047908, 37.468594226101985], [127.12248526491948, 37.46891403108304], [127.12246194310217, 37.468943899960095], [127.1224428256534, 37.46896976217247], [127.12243293100933, 37.46898315190089], [127.1220645145437, 37.46948857801882], [127.12206393371886, 37.46948938739069], [127.12084148157585, 37.47118696181366], [127.12071472801203, 37.47136181660278], [127.12041106920188, 37.4717818604741], [127.12002750442865, 37.472316399469506], [127.12002396221376, 37.472321345590096], [127.11970327341167, 37.472761811818316], [127.1197033577361, 37.47276079354656], [127.11971558265057, 37.472613558759434], [127.11971880137531, 37.47258094869539], [127.11971819760886, 37.47258181206329], [127.11938432038059, 37.47305549534397], [127.11883061704515, 37.47384104422229], [127.11873110012348, 37.47398225554963], [127.11872396907349, 37.47399235487305], [127.11866103035958, 37.47408165735097], [127.11857940914015, 37.47419747173911], [127.11851855490343, 37.47428378833296], [127.11843849201182, 37.47439998622335], [127.11841239242025, 37.47443723649158], [127.118241632806, 37.47469891010696], [127.1182412000221, 37.47469950360976], [127.11801199428125, 37.47500052191014], [127.1179318156207, 37.475105830573405], [127.1176612627016, 37.475466078371916], [127.11742843007438, 37.475778792487226], [127.11723280852326, 37.47603311906704], [127.11707681523522, 37.47623426701543], [127.11696343114923, 37.4763811014263], [127.11670134355501, 37.47672959353049], [127.11660609968337, 37.47685417764642], [127.1166032189784, 37.476857954031736], [127.1165786208995, 37.476888745961084], [127.11628569371663, 37.477269180545726], [127.1161882973412, 37.47740083303389], [127.11612168460563, 37.47749085226514], [127.11605568663805, 37.47758005321283], [127.1160386148353, 37.47760312675764], [127.11603818192486, 37.4776037382789], [127.11603274949223, 37.47761107576206], [127.11601821407099, 37.477631363315346], [127.11597847404596, 37.47768593799003], [127.11597725549554, 37.47768757451345], [127.11556991250357, 37.478215251829006], [127.11556866023663, 37.47821684317012], [127.11552473793249, 37.478273017520436], [127.1155031980413, 37.47830055622761], [127.11550193404588, 37.47830222865262], [127.11527584073534, 37.47860955207844], [127.11521146679266, 37.478697063255666], [127.11521025965763, 37.47869867276706], [127.11507362848411, 37.478880231261876], [127.11507318429459, 37.47888083372905], [127.11471090179901, 37.47936630863556], [127.11458174648575, 37.47954304157271], [127.11458124541353, 37.479543706947894], [127.1143447276195, 37.47985764657395], [127.11432834014389, 37.47987940610202], [127.11430029160644, 37.47991657694745], [127.11429936908668, 37.47991781781884], [127.11425751793435, 37.47997334945615], [127.11425633347127, 37.479974941004116], [127.11409797517682, 37.48019294165396], [127.11390135501459, 37.48046104107422], [127.11389963514988, 37.48046336998757], [127.11345410415873, 37.48106718833266], [127.11344039081374, 37.4810857115695], [127.11343918360201, 37.481087321061715], [127.11296752590272, 37.48172241046452], [127.11285805249585, 37.48190168465064], [127.11262510789106, 37.48223487650469], [127.11227840404689, 37.482785644412246], [127.11227786792925, 37.4827865169759], [127.11222817388956, 37.482868576302735], [127.11222763777073, 37.482869448866154], [127.11198214332, 37.48326392698897], [127.11178383322117, 37.483586720926894], [127.11178201960774, 37.48358965341352], [127.11165900562449, 37.48378777450995], [127.11172553125549, 37.483806326891425], [127.11165757988024, 37.48379006830119], [127.11165167186208, 37.48379952221476], [127.11164860364822, 37.48380446061653], [127.11151169580137, 37.48402505194604], [127.11151107193292, 37.48402539241287], [127.11125088206815, 37.48438610960042], [127.11104543649031, 37.48467463594285], [127.11102063860478, 37.484710302382275], [127.11084276812464, 37.48496606443484], [127.11084018183581, 37.48496966137014], [127.11045777646193, 37.48550299984124], [127.10926671875127, 37.487113768971405], [127.10925273788762, 37.48713329132663], [127.10915319815697, 37.487276341905854], [127.10914729438277, 37.48728486729728], [127.10917668920483, 37.4873138171726], [127.1091736788937, 37.48731409565065], [127.10912251467715, 37.48731887487046], [127.10912106752689, 37.48732090716325], [127.10877021986465, 37.48780650897174], [127.10850696592205, 37.488172735032826], [127.10829514496534, 37.488473719109244], [127.10826649467563, 37.48851445585582], [127.10824215239109, 37.48854902353078], [127.10812634331708, 37.48871358886588], [127.10785314842305, 37.489099835747666], [127.10785245841679, 37.48909983345735], [127.10784948413736, 37.48910402393559], [127.10784851549104, 37.48910539079184], [127.1078423616733, 37.489114086543694], [127.10740144325106, 37.489735923512534], [127.10735399612233, 37.489803899837476], [127.1070066499076, 37.49029471766371], [127.1069527654047, 37.490334658056064], [127.10678678725648, 37.49044644256253], [127.10658017941493, 37.49058560112445], [127.1065795889794, 37.49058602279866], [127.1061154217936, 37.490907380276454], [127.10486186777871, 37.491770304861255], [127.10459778557404, 37.491954750402506], [127.10449645052252, 37.492023464564426], [127.10430860144851, 37.49215397473545], [127.10394207950837, 37.49240996828947], [127.10351192997457, 37.49270536203099], [127.10349899842659, 37.49271207884651], [127.10330528274713, 37.4928239726085], [127.10311809102718, 37.492912858164956], [127.1028628742391, 37.49303229628222], [127.102639124503, 37.493133118398326], [127.10263818320453, 37.4931335659133], [127.10250440024475, 37.49319598585714], [127.10240088476478, 37.49324427501225], [127.10166743806643, 37.493575831013565], [127.10142527435431, 37.493686179215636], [127.1014245279367, 37.493686140642865], [127.1013296784331, 37.49372979804805], [127.10098900622397, 37.49388662060311], [127.10057623901285, 37.49407722484597], [127.10045554216214, 37.49409487999815], [127.1003968936448, 37.49413604512696], [127.1003594277884, 37.49421860932546], [127.10018595505528, 37.49428343419207], [127.10000003523885, 37.4943575115014], [127.09994440624985, 37.494379677807835], [127.09988181828021, 37.49439029120022], [127.09982774521008, 37.494400490834074], [127.0997756434525, 37.494447450147746], [127.09976327562177, 37.494509098347756], [127.09942933470118, 37.494637268659076], [127.09931661987703, 37.494683530986606], [127.09926428197426, 37.49469752286707], [127.09923347964475, 37.49470690160391], [127.09920655385139, 37.49471442946837], [127.09915167092464, 37.49473724420641], [127.0990108768353, 37.49479977428198], [127.09884222092167, 37.49487260949199], [127.09879650772892, 37.49489437987686], [127.09744075825975, 37.495182331784115], [127.09740295461906, 37.495190345859385], [127.09747756907984, 37.495245056776575], [127.09779797802688, 37.4954799459332], [127.09774649363173, 37.495507603782826], [127.09755237542498, 37.495611875553145], [127.09713768303199, 37.49583463071485], [127.09587060056178, 37.496297666048335], [127.09586748113335, 37.496298803711404], [127.09479449380115, 37.49668265138182], [127.09471245491694, 37.49670356636877], [127.09460655552401, 37.496733970074516], [127.0944398808503, 37.49678025345367], [127.09438387844035, 37.49679531762235], [127.09368535338056, 37.49699394234429], [127.09246008249826, 37.49733834390211], [127.09227548870794, 37.49739025088698], [127.09227201822426, 37.49739122680072], [127.09207151930596, 37.49744747991572], [127.09203214504912, 37.49745878221762], [127.09178525142195, 37.497529090881144], [127.09167187582787, 37.49755957878167], [127.09149829395875, 37.49761070056838], [127.09137111350984, 37.49764396530713], [127.09131578765337, 37.4976592079244], [127.09125491113478, 37.497676608998574], [127.09119467992821, 37.49769329659372], [127.09118377086492, 37.4976963865647], [127.09118134037153, 37.49769709113021], [127.09115450306594, 37.49770464449803], [127.09113040096803, 37.49771142043839], [127.09108687895585, 37.49772440172555], [127.0910317556829, 37.49773898601562], [127.09098110986994, 37.497753198197294], [127.09092099240983, 37.497770580094205], [127.09077853007756, 37.49781165835147], [127.09064270165955, 37.49784837069778], [127.09060507973034, 37.49785898634917], [127.0903655649177, 37.4979266639989], [127.09030510714932, 37.497943747853384], [127.09030079919393, 37.49794497679109], [127.09029779210495, 37.49794581724686], [127.09011845356521, 37.49799650060431], [127.0896989432863, 37.49811659913045], [127.08962341664034, 37.49813834351248], [127.0894414864198, 37.498189037566405], [127.0892770105832, 37.49823485166669], [127.08927527035996, 37.498235312521196], [127.08922740458631, 37.49824871067131], [127.0891634079605, 37.4982665450865], [127.08884706449153, 37.49835765822032], [127.08858976121742, 37.49842860808214], [127.08830687586932, 37.49850660340253], [127.08818940397065, 37.49853900168354], [127.08812325860983, 37.49855722373998], [127.08779794374495, 37.49864768353905], [127.08760821035608, 37.498700479249194], [127.0870911046, 37.498845364887956], [127.08599392079836, 37.49915542093652], [127.08545451309568, 37.49930511831462], [127.0853610515361, 37.4993311172441], [127.08530161885605, 37.499346954643066], [127.08529000901844, 37.499350044311726], [127.0852770638602, 37.49935381071995], [127.0851541210121, 37.49938958849928], [127.08467959615982, 37.49952525153573], [127.0846115158493, 37.49954445541088], [127.08452510866773, 37.49956882718925], [127.08449787428701, 37.49957613517653], [127.084357450853, 37.49961571747451], [127.08415406842904, 37.49967304931898], [127.08405256533948, 37.4997090807885], [127.08388191426765, 37.49976967766203], [127.08357662238298, 37.49987447387094], [127.0834811997866, 37.4999072300059], [127.08338380937056, 37.49993984301801], [127.08320429774501, 37.5000000254816], [127.08320256696476, 37.50000060525924], [127.08319873702416, 37.500001889705125], [127.08293827433538, 37.50008706657067], [127.08293252104154, 37.500088972465655], [127.08278074166826, 37.500139534623024], [127.08237287482726, 37.500276370189326], [127.08232569922478, 37.50029194565852], [127.08214492619211, 37.50035283231637], [127.08212303716003, 37.500358876927116], [127.08211476304349, 37.50036162024221], [127.08211036530828, 37.50036307570525], [127.08178072450652, 37.500472278900354], [127.0799265543231, 37.50108650282025], [127.07888943028713, 37.50143014392281], [127.07782038190352, 37.50178566068996], [127.07698705602161, 37.5020674263521], [127.07690244897526, 37.502074784906824], [127.07676093012357, 37.5020896263042], [127.07637249502913, 37.50212546011566], [127.07616770044248, 37.50214752631118], [127.07614648331881, 37.502149813550034], [127.07607374938917, 37.50215665526857], [127.07593020418474, 37.502170852037615], [127.07560237445546, 37.50219976029345], [127.07500001425989, 37.50225541329551], [127.07216630983145, 37.50251718216141], [127.06981807975566, 37.50273958057029], [127.06971641676108, 37.50347006688143], [127.0692689488129, 37.50707342407247], [127.06917872909715, 37.50779957228383], [127.06909684534926, 37.508478285192545], [127.0689853495692, 37.50938363568202], [127.06886897621496, 37.51030005302418], [127.0688681510802, 37.5102999039924], [127.06886729626797, 37.51030609500752], [127.06882124416659, 37.510676715110215], [127.06874643736221, 37.511347899881244], [127.06872940178384, 37.511532280819665], [127.0686697868936, 37.51203562672882], [127.06860928075658, 37.51257847042461], [127.06841772436694, 37.51428012033989], [127.06817148335178, 37.51620128442763], [127.06795586626795, 37.51788343650843], [127.06789614564397, 37.518310641630805], [127.06789762785498, 37.51838917509354], [127.0678980085652, 37.51840793012367], [127.06789823612333, 37.51842145311643], [127.06790121402355, 37.51857932409778], [127.067812767672, 37.51919245871997], [127.06773116326599, 37.519318840407855], [127.06769876251344, 37.51960087901098], [127.06766797485379, 37.51986886052485], [127.06766720268145, 37.519966602646896], [127.0675888998229, 37.52087648812042], [127.06751145560465, 37.52341779759127], [127.06747911644511, 37.52458218644414], [127.06745599912145, 37.524596078210855], [127.06567767910813, 37.52500062887339], [127.06544729464743, 37.52505303623643], [127.06543214131325, 37.525056483149534], [127.06300863046832, 37.52597790059897], [127.06032410118029, 37.52702557519145], [127.05735371536137, 37.52796348145695], [127.0562179699402, 37.52831738620726], [127.05622486284537, 37.528329920215924], [127.06079451777227, 37.5268817944786], [127.0654648385097, 37.525087773250924], [127.06645524109115, 37.525089503998174], [127.06666225333542, 37.525000598633206], [127.0675179798365, 37.52463308503352], [127.06751967061112, 37.524572311873925], [127.06823064946398, 37.52413688474029], [127.06866313888433, 37.52387201871436], [127.07206022620643, 37.52341516913277], [127.07308352798155, 37.523169446413924], [127.07333931967167, 37.52310819516995], [127.07431840431242, 37.522873733879905], [127.07500003034748, 37.522780715152756], [127.07651301034359, 37.52257423007607], [127.0769474219359, 37.522514938129305], [127.07695437808414, 37.52251398777774], [127.07997464078944, 37.52294849894747], [127.08025400495528, 37.52306276384676], [127.08112739444695, 37.523409405978], [127.08238726622496, 37.52378671738208], [127.08563283996547, 37.52475895658213], [127.08576662964737, 37.52482557016927], [127.08611886981777, 37.52500064614821], [127.08826640033003, 37.526068007282994], [127.08875481962725, 37.526309843043094], [127.09016104774896, 37.52700694974218], [127.09071487419459, 37.527468360267086], [127.09129296406265, 37.52794997582921], [127.09466176376607, 37.53060746349246], [127.09695520827574, 37.53242540525024], [127.09920331549226, 37.53420776830014], [127.100000050067, 37.53483835310173], [127.10069332159888, 37.5353870388627], [127.1020233473125, 37.53645003364962], [127.10261816263346, 37.53692541416957], [127.10321463472695, 37.53739886293127], [127.10321808282038, 37.53740158218827], [127.10375007609294, 37.53780789043598], [127.10591359604692, 37.53953105553712], [127.1082817726937, 37.541407850366745], [127.10923891048775, 37.543165395889126], [127.1092397233598, 37.54316689482772], [127.11167335657957, 37.54316968799308], [127.11310484521798, 37.543171309630914], [127.11310460739988, 37.543169576447944], [127.11311978962415, 37.54316959193915], [127.11304882425968, 37.54298180011129], [127.11304783485147, 37.54297918113759], [127.113502226554, 37.54284318021511], [127.11362339784722, 37.54281119828756], [127.11406175786556, 37.542684774623666], [127.11446239546027, 37.54256337110498], [127.1146488359065, 37.54250965681685], [127.11489028762462, 37.54243911128484], [127.11492195713399, 37.54242986390869], [127.11552448503745, 37.54225385109836]]]}}]}